SatCatId,ObjectName,LaunchYear,OrbitalPeriod,LaunchMass,StatusCode,Inclination,Status,UcsData,OrbitClassEstimated,LaunchSiteCountry,Owner,UseType,Purpose,LaunchVehicleClass,TLE1,TLE2,MeanMotion,Eccentricity,OrbitClass
53835,STARLINK-4783,2022,95.44,260.0,+,53.22,Active,1,LEO,USA,USA,Commercial,Communications,Falcon,1 53835U 22114T   23266.73434249  .00030971  00000+0  19542-2 0  9991,2 53835  53.2181  14.9864 0001102  91.3696 268.7423 15.08864556 56737,15.08864556,0.0001102,LEO
53836,STARLINK-4778,2022,95.44,260.0,+,53.22,Active,1,LEO,USA,USA,Commercial,Communications,Falcon,1 53836U 22114U   23266.50714721  .00005016  00000+0  33289-3 0  9990,2 53836  53.2191   6.4155 0001719 115.2419 244.8751 15.08852625 57375,15.08852625,0.0001719,LEO
53837,STARLINK-4776,2022,95.44,260.0,+,53.22,Active,1,LEO,USA,USA,Commercial,Communications,Falcon,1 53837U 22114V   23266.72697020  .00000933  00000+0  76687-4 0  9990,2 53837  53.2185  14.9410 0001299  88.5623 271.5518 15.08854233 56733,15.08854233,0.0001299,LEO
53838,STARLINK-4773,2022,95.44,260.0,+,53.22,Active,1,LEO,USA,USA,Commercial,Communications,Falcon,1 53838U 22114W   23266.56971141  .00007626  00000+0  49654-3 0  9991,2 53838  53.2187   6.1016 0001343 113.2664 246.8469 15.08851482 57387,15.08851482,0.0001343,LEO
53839,STARLINK-4784,2022,95.44,260.0,+,53.22,Active,1,LEO,USA,USA,Commercial,Communications,Falcon,1 53839U 22114X   23266.57708043  .00000151  00000+0  27608-4 0  9994,2 53839  53.2201   6.1534 0001433  87.5735 272.5421 15.08840487 57389,15.08840487,0.0001433,LEO
53840,STARLINK-4766,2022,95.44,260.0,+,53.22,Active,1,LEO,USA,USA,Commercial,Communications,Falcon,1 53840U 22114Y   23266.49337442  .00001962  00000+0  14130-3 0  9994,2 53840  53.2191   6.3338 0001673 103.1058 257.0120 15.08852938 57379,15.08852938,0.0001673,LEO
53841,STARLINK-4750,2022,95.44,260.0,+,53.22,Active,1,LEO,USA,USA,Commercial,Communications,Falcon,1 53841U 22114Z   23266.56602898  .00004314  00000+0  28890-3 0  9995,2 53841  53.2184   6.0839 0001473  97.6601 262.4559 15.08847163 57385,15.08847163,0.0001473,LEO
53842,STARLINK-4754,2022,95.44,260.0,+,53.22,Active,1,LEO,USA,USA,Commercial,Communications,Falcon,1 53842U 22114AA  23266.55128778  .00000881  00000+0  73402-4 0  9990,2 53842  53.2186   5.9900 0001426  83.4941 276.6213 15.08851960 56847,15.0885196,0.0001426,LEO
53843,STARLINK-4769,2022,95.44,260.0,+,53.22,Active,1,LEO,USA,USA,Commercial,Communications,Falcon,1 53843U 22114AB  23266.49610500  .00021457  00000+0  13617-2 0  9995,2 53843  53.2181   6.3565 0001302  76.8625 283.2512 15.08851783 57371,15.08851783,0.0001302,LEO
53844,STARLINK-4745,2022,95.44,260.0,+,53.22,Active,1,LEO,USA,USA,Commercial,Communications,Falcon,1 53844U 22114AC  23266.54392059 -.00000566  00000+0 -17483-4 0  9995,2 53844  53.2178   5.9469 0001303  75.6992 284.4144 15.08847643 57386,15.08847643,0.0001303,LEO
53845,STARLINK-4753,2022,95.44,260.0,+,53.22,Active,1,LEO,USA,USA,Commercial,Communications,Falcon,1 53845U 22114AD  23266.55497278  .00008547  00000+0  55419-3 0  9991,2 53845  53.2176   6.0305 0001169  92.5900 267.5226 15.08856883 57382,15.08856883,0.0001169,LEO
53846,STARLINK-4746,2022,95.44,260.0,+,53.22,Active,1,LEO,USA,USA,Commercial,Communications,Falcon,1 53846U 22114AE  23266.53655130 -.00000400  00000+0 -70457-5 0  9996,2 53846  53.2183   5.9010 0001438  82.4811 277.6345 15.08846008 57382,15.08846008,0.0001438,LEO
53847,STARLINK-4777,2022,95.44,260.0,+,53.22,Active,1,LEO,USA,USA,Commercial,Communications,Falcon,1 53847U 22114AF  23266.54760312  .00000746  00000+0  64916-4 0  9990,2 53847  53.2191   5.9681 0001432  92.8527 267.2629 15.08852787 57380,15.08852787,0.0001432,LEO
53848,STARLINK-4780,2022,95.44,260.0,+,53.22,Active,1,LEO,USA,USA,Commercial,Communications,Falcon,1 53848U 22114AG  23266.52917942  .00007855  00000+0  51089-3 0  9996,2 53848  53.2175   5.8556 0001331  79.4103 280.7039 15.08851082 57384,15.08851082,0.0001331,LEO
53849,STARLINK-4770,2022,95.44,260.0,+,53.22,Active,1,LEO,USA,USA,Commercial,Communications,Falcon,1 53849U 22114AH  23266.67271107  .00001744  00000+0  12758-3 0  9990,2 53849  53.2174   5.3280 0001280  76.1623 283.9511 15.08855432 56862,15.08855432,0.000128,LEO
53850,STARLINK-4767,2022,95.44,260.0,+,53.22,Active,1,LEO,USA,USA,Commercial,Communications,Falcon,1 53850U 22114AJ  23266.51812405  .00009890  00000+0  63836-3 0  9990,2 53850  53.2181   5.7853 0001137 103.6635 256.4483 15.08853320 57387,15.0885332,0.0001137,LEO
53851,STARLINK-4755,2022,95.44,260.0,+,53.22,Active,1,LEO,USA,USA,Commercial,Communications,Falcon,1 53851U 22114AK  23266.53286421  .00026212  00000+0  16582-2 0  9998,2 53851  53.2167   5.8765 0001050  98.1594 261.9517 15.08855445 57380,15.08855445,0.000105,LEO
53852,STARLINK-4797,2022,95.44,260.0,+,53.22,Active,1,LEO,USA,USA,Commercial,Communications,Falcon,1 53852U 22114AL  23266.67869978 -.00000876  00000+0 -36903-4 0  9999,2 53852  53.2185   0.3769 0001466  80.0615 280.0542 15.08857756 56937,15.08857756,0.0001466,LEO
53853,STARLINK-4794,2022,95.44,260.0,+,53.22,Active,1,LEO,USA,USA,Commercial,Communications,Falcon,1 53853U 22114AM  23266.52549393  .00009154  00000+0  59230-3 0  9993,2 53853  53.2176   5.8339 0001433  83.3682 276.7473 15.08853334 57388,15.08853334,0.0001433,LEO
53854,STARLINK-4800,2022,95.44,260.0,+,53.22,Active,1,LEO,USA,USA,Commercial,Communications,Falcon,1 53854U 22114AN  23266.57431894  .00004496  00000+0  30022-3 0  9997,2 53854  53.2173 356.1511 0001156  94.8994 265.2130 15.08859252 57529,15.08859252,0.0001156,LEO
53855,STARLINK-4703,2022,95.44,260.0,+,53.22,Active,1,LEO,USA,USA,Commercial,Communications,Falcon,1 53855U 22114AP  23266.53013595 -.00000272  00000+0  99534-6 0  9993,2 53855  53.2177   5.8594 0001156  92.2492 267.8633 15.08849186 57383,15.08849186,0.0001156,LEO
53856,STARLINK-4795,2022,95.44,260.0,+,53.22,Active,1,LEO,USA,USA,Commercial,Communications,Falcon,1 53856U 22114AQ  23266.55957982  .00000608  00000+0  56275-4 0  9998,2 53856  53.2198 356.0611 0001633  81.2459 278.8718 15.08850500 57523,15.088505,0.0001633,LEO
53857,STARLINK-4809,2022,95.44,260.0,+,53.22,Active,1,LEO,USA,USA,Commercial,Communications,Falcon,1 53857U 22114AR  23266.51443892 -.00000357  00000+0 -43153-5 0  9990,2 53857  53.2182   5.7656 0001308  99.8279 260.2861 15.08849804 57381,15.08849804,0.0001308,LEO
53858,STARLINK-4798,2022,95.44,260.0,+,53.22,Active,1,LEO,USA,USA,Commercial,Communications,Falcon,1 53858U 22114AS  23266.57063589  .00005296  00000+0  35049-3 0  9996,2 53858  53.2187 356.1276 0001561  81.0233 279.0936 15.08851090 57529,15.0885109,0.0001561,LEO
53859,STARLINK-4790,2022,95.44,260.0,+,53.22,Active,1,LEO,USA,USA,Commercial,Communications,Falcon,1 53859U 22114AT  23266.52043128  .00000398  00000+0  43081-4 0  9993,2 53859  53.2192   0.8165 0001571  71.2143 288.9019 15.08848262 57458,15.08848262,0.0001571,LEO
53860,STARLINK-4799,2022,95.44,260.0,+,53.22,Active,1,LEO,USA,USA,Commercial,Communications,Falcon,1 53860U 22114AU  23266.49702806  .00000408  00000+0  43715-4 0  9992,2 53860  53.2194 356.3824 0001603 106.1010 254.0159 15.08846207 56972,15.08846207,0.0001603,LEO
53861,STARLINK-4781,2022,95.44,260.0,+,53.22,Active,1,LEO,USA,USA,Commercial,Communications,Falcon,1 53861U 22114AV  23266.56695284  .00001897  00000+0  13721-3 0  9998,2 53861  53.2188 356.1029 0001450  91.0687 269.0471 15.08843159 57521,15.08843159,0.000145,LEO
53862,STARLINK-4792,2022,95.44,260.0,+,53.22,Active,1,LEO,USA,USA,Commercial,Communications,Falcon,1 53862U 22114AW  23266.42069008 -.00001133  00000+0 -53085-4 0  9996,2 53862  53.2187 356.6147 0001045 100.5627 259.5483 15.08851681 57501,15.08851681,0.0001045,LEO
53863,STARLINK-4788,2022,95.44,260.0,+,53.22,Active,1,LEO,USA,USA,Commercial,Communications,Falcon,1 53863U 22114AX  23266.48965744  .00024593  00000+0  15574-2 0  9997,2 53863  53.2179 356.3356 0001136  98.6688 261.4433 15.08851818 57517,15.08851818,0.0001136,LEO
53864,STARLINK-4779,2022,95.44,260.0,+,53.22,Active,1,LEO,USA,USA,Commercial,Communications,Falcon,1 53864U 22114AY  23266.51167975  .00025275  00000+0  15999-2 0  9991,2 53864  53.2163 355.7662 0001243  76.7541 283.3590 15.08852135 57529,15.08852135,0.0001243,LEO
53865,STARLINK-4785,2022,95.44,260.0,+,53.22,Active,1,LEO,USA,USA,Commercial,Communications,Falcon,1 53865U 22114AZ  23266.53378380  .00000539  00000+0  51961-4 0  9995,2 53865  53.2186 355.8970 0001351  80.2711 279.8433 15.08853487 57524,15.08853487,0.0001351,LEO
53866,STARLINK-4762,2022,95.44,260.0,+,53.22,Active,1,LEO,USA,USA,Commercial,Communications,Falcon,1 53866U 22114BA  23266.50255136  .00020377  00000+0  12950-2 0  9991,2 53866  53.2173 336.4475 0001395  96.1822 263.9330 15.08831694 57798,15.08831694,0.0001395,LEO
53867,STARLINK-4793,2022,95.44,260.0,+,53.22,Active,1,LEO,USA,USA,Commercial,Communications,Falcon,1 53867U 22114BB  23266.49057917  .00001875  00000+0  13588-3 0  9998,2 53867  53.2183 346.3581 0001108  60.5797 299.5305 15.08836734 57658,15.08836734,0.0001108,LEO
53868,STARLINK-4789,2022,95.44,260.0,+,53.22,Active,1,LEO,USA,USA,Commercial,Communications,Falcon,1 53868U 22114BC  23266.47308284 -.00000696  00000+0 -25655-4 0  9994,2 53868  53.2185 336.2815 0001529  69.0301 291.0855 15.08844751 57791,15.08844751,0.0001529,LEO
53869,STARLINK-4810,2022,95.44,260.0,+,53.22,Active,1,LEO,USA,USA,Commercial,Communications,Falcon,1 53869U 22114BD  23266.45373288  .00027457  00000+0  17357-2 0  9999,2 53869  53.2178 346.1294 0001466  70.6575 289.4575 15.08857017 57650,15.08857017,0.0001466,LEO
53870,STARLINK-4732,2022,95.44,260.0,+,53.22,Active,1,LEO,USA,USA,Commercial,Communications,Falcon,1 53870U 22114BE  23266.47676384  .00003336  00000+0  22753-3 0  9993,2 53870  53.2171 336.2853 0001536  80.3788 279.7378 15.08854902 57796,15.08854902,0.0001536,LEO
